STARLINK-31206          
1 59028U 24038F   24068.58335648  .00359825  00000+0  12393-2 0  9994
2 59028  43.0037 191.5820 0003403 299.2824 146.4363 15.87860025  3018
STARLINK-31224          
1 59029U 24038G   24068.58335648 -.01104684  00000+0 -70606-2 0  9990
2 59029  43.0037 191.7203 0001457 273.8868 116.5899 15.77919645  2090
STARLINK-31186          
1 59030U 24038H   24068.58335648 -.01111699  00000+0 -71157-2 0  9998
2 59030  43.0037 191.7147 0001643 273.3865 119.2964 15.77901971  2263
STARLINK-31211          
1 59031U 24038J   24068.58335648 -.01117554  00000+0 -71548-2 0  9999
2 59031  43.0036 191.7094 0001410 272.9798 121.6938 15.77912748  2268
STARLINK-30862          
1 59032U 24038K   24068.58335648 -.01123308  00000+0 -72006-2 0  9994
2 59032  43.0034 191.7041 0001415 274.6895 122.1555 15.77898454  2371
STARLINK-31210          
1 59033U 24038L   24068.58335648 -.01130895  00000+0 -72621-2 0  9997
2 59033  43.0035 191.6984 0001502 274.1285 124.9541 15.77875900  2256
STARLINK-31231          
1 59034U 24038M   24068.58335648 -.01135987  00000+0 -73043-2 0  9994
2 59034  43.0034 191.6931 0001378 277.7714 123.4820 15.77860176  2371
STARLINK-31207          
1 59035U 24038N   24068.58335648 -.01141218  00000+0 -73483-2 0  9997
2 59035  43.0035 191.6870 0001544 283.7781 119.6783 15.77839393  2159
STARLINK-31217          
1 59036U 24038P   24068.58335648 -.00925004  00000+0 -46872-2 0  9992
2 59036  43.0030 191.4886 0001385 273.1370 209.0883 15.82878926  2314
STARLINK-31208          
1 59037U 24038Q   24068.58335648 -.01052078  00000+0 -56171-2 0  9999
2 59037  43.0027 191.4256 0001432 288.0117 219.2036 15.82102058  2329
STARLINK-31235          
1 59038U 24038R   24068.58335648 -.01171479  00000+0 -75761-2 0  9993
2 59038  43.0030 191.6652 0001644 273.3096 138.6095 15.77812168  2316
STARLINK-31220          
1 59039U 24038S   24068.58335648 -.01158382  00000+0 -74774-2 0  9995
2 59039  43.0030 191.6707 0001652 284.3433 125.4096 15.77822995  2318
STARLINK-31225          
1 59040U 24038T   24068.58335648 -.01173322  00000+0 -75928-2 0  9990
2 59040  43.0027 191.6597 0001722 279.4636 134.5646 15.77801686  2317
STARLINK-31240          
1 59041U 24038U   24068.58335648 -.01184013  00000+0 -76818-2 0  9999
2 59041  43.0027 191.6541 0001401 277.3969 138.8945 15.77773030  2373
STARLINK-31202          
1 59042U 24038V   24068.58335648 -.01191001  00000+0 -77355-2 0  9992
2 59042  43.0029 191.6486 0001561 276.4132 141.9987 15.77763747  2312
STARLINK-31234          
1 59043U 24038W   24068.58335648 -.01196213  00000+0 -77841-2 0  9993
2 59043  43.0027 191.6379 0001622 288.8126 133.8774 15.77733409  2327
STARLINK-31153          
1 59044U 24038X   24068.58335648 -.01193334  00000+0 -77584-2 0  9999
2 59044  43.0028 191.6433 0001325 282.7207 137.8216 15.77749693  2364
STARLINK-31241          
1 59045U 24038Y   24068.58335648 -.01206917  00000+0 -78688-2 0  9998
2 59045  43.0030 191.6327 0001604 282.1871 142.6805 15.77716401  2269
STARLINK-31205          
1 59046U 24038Z   24068.58335648 -.01211915  00000+0 -79099-2 0  9990
2 59046  43.0029 191.6272 0001649 284.9210 142.0728 15.77703863  2269
STARLINK-31265          
1 59074U 24041A   24068.58335648 -.00771704  00000+0 -34810-2 0  9993
2 59074  43.0039 119.4272 0001939 281.8757   9.5554 15.84918013  2473
STARLINK-31276          
1 59075U 24041B   24068.58335648 -.00774086  00000+0 -34858-2 0  9992
2 59075  43.0040 119.4237 0001686 285.0968   7.7836 15.84961030  2522
STARLINK-31259          
1 59076U 24041C   24068.58335648 -.00780724  00000+0 -35092-2 0  9990
2 59076  43.0037 119.4180 0001952 285.0525   9.8802 15.85012289  2464
STARLINK-31281          
1 59077U 24041D   24068.58335648 -.00788842  00000+0 -35405-2 0  9998
2 59077  43.0038 119.4132 0001841 284.1830  12.6533 15.85062630  2524
STARLINK-31274          
1 59078U 24041E   24068.58335648 -.00795423  00000+0 -35641-2 0  9994
2 59078  43.0036 119.4086 0001890 279.6587  19.0076 15.85111901  2476
STARLINK-31257          
1 59079U 24041F   24068.58335648 -.00802923  00000+0 -35920-2 0  9999
2 59079  43.0037 119.4034 0001840 279.2299  21.4706 15.85162713  2465
STARLINK-31299          
1 59080U 24041G   24068.58335648 -.00808740  00000+0 -36123-2 0  9990
2 59080  43.0037 119.3988 0001634 280.5406  21.9863 15.85210875  2518
STARLINK-31292          
1 59081U 24041H   24068.58335648 -.00813861  00000+0 -36288-2 0  9993
2 59081  43.0037 119.3942 0001662 285.5330  18.7962 15.85258724  2475
STARLINK-31286          
1 59082U 24041J   24068.58335648 -.00822635  00000+0 -36621-2 0  9994
2 59082  43.0038 119.3887 0001753 285.9574  20.5149 15.85311179  2461
STARLINK-31252          
1 59083U 24041K   24068.58335648 -.00828101  00000+0 -36795-2 0  9991
2 59083  43.0035 119.3837 0001976 272.1585  36.2812 15.85360448  2511
STARLINK-31261          
1 59084U 24041L   24068.58335648 -.00837154  00000+0 -37145-2 0  9990
2 59084  43.0033 119.3786 0001860 282.9207  27.5515 15.85411765  2517
STARLINK-31290          
1 59085U 24041M   24068.58335648 -.00842027  00000+0 -37295-2 0  9992
2 59085  43.0034 119.3738 0001893 275.3407  36.9307 15.85459232  2514
STARLINK-31279          
1 59086U 24041N   24068.58335648 -.00848339  00000+0 -37514-2 0  9999
2 59086  43.0034 119.3687 0001758 286.1237  28.1654 15.85508490  2529
STARLINK-31266          
1 59087U 24041P   24068.58335648 -.00858365  00000+0 -37904-2 0  9993
2 59087  43.0034 119.3633 0001780 281.3252  35.1022 15.85560721  2522
STARLINK-31313          
1 59088U 24041Q   24068.58335648 -.00862529  00000+0 -38021-2 0  9992
2 59088  43.0033 119.3590 0001730 281.6036  36.5608 15.85606949  2474
STARLINK-31307          
1 59089U 24041R   24068.58335648 -.00869791  00000+0 -38279-2 0  9996
2 59089  43.0031 119.3543 0001836 281.5716  38.4495 15.85656153  2525
STARLINK-31316          
1 59090U 24041S   24068.58335648 -.00877031  00000+0 -38541-2 0  9996
2 59090  43.0032 119.3489 0001572 282.6028  39.5017 15.85705869  2422
STARLINK-31352          
1 59091U 24041T   24068.58335648 -.00884796  00000+0 -38820-2 0  9993
2 59091  43.0033 119.3438 0001614 283.3032  40.9337 15.85756498  2524
STARLINK-31310          
1 59092U 24041U   24068.58335648 -.00893470  00000+0 -39136-2 0  9994
2 59092  43.0033 119.3385 0001915 279.2270  47.0227 15.85807548  2471
STARLINK-31343          
1 59093U 24041V   24068.58335648 -.00900800  00000+0 -39398-2 0  9991
2 59093  43.0031 119.3332 0001782 280.2847  48.0461 15.85856788  2523
STARLINK-31302          
1 59094U 24041W   24068.58335648 -.00906590  00000+0 -39587-2 0  9994
2 59094  43.0034 119.3286 0001675 284.8452  45.3798 15.85904618  2369
STARLINK-31295          
1 59095U 24041X   24068.58335648 -.00914350  00000+0 -39861-2 0  9993
2 59095  43.0031 119.3236 0001837 284.3133  47.8886 15.85954361  2469
STARLINK-31291          
1 59096U 24041Y   24068.58335648 -.00921137  00000+0 -40092-2 0  9993
2 59096  43.0032 119.3187 0001861 283.5950  50.5825 15.86003062  2469
STARLINK-31312          
1 59152U 24044A   24068.66667824 -.01087120  00000+0 -38263-2 0  9995
2 59152  43.0044 276.6751 0001952 269.1654  49.0358 15.90587642  1741
STARLINK-31308          
1 59153U 24044B   24068.66667824 -.01094422  00000+0 -38359-2 0  9995
2 59153  43.0044 276.6730 0001539 260.2818  58.7391 15.90689995  1797
STARLINK-31270          
1 59154U 24044C   24068.66667824 -.01102620  00000+0 -38458-2 0  9996
2 59154  43.0043 276.6709 0001504 258.4940  61.3901 15.90803066  1794
STARLINK-31341          
1 59155U 24044D   24068.66667824 -.01108496  00000+0 -38450-2 0  9996
2 59155  43.0043 276.6687 0001691 255.0105  65.7631 15.90920207  1743
STARLINK-31338          
1 59156U 24044E   24068.66667824 -.01117401  00000+0 -38562-2 0  9997
2 59156  43.0043 276.6662 0001721 259.6274  62.0308 15.91037771  1464
STARLINK-31334          
1 59157U 24044F   24068.66667824 -.01268628  46297-3 -38616-2 0  9998
2 59157  43.0043 276.6645 0001690 256.7465  65.7163 15.91136846  1575
STARLINK-31297          
1 59158U 24044G   24068.66667824 -.01280962  47178-3 -38755-2 0  9997
2 59158  43.0042 276.6622 0001663 258.1805  65.1751 15.91256834  1795
STARLINK-31182          
1 59159U 24044H   24068.66667824 -.01294723  48166-3 -38932-2 0  9993
2 59159  43.0042 276.6599 0001571 258.8702  65.3775 15.91377978  1791
STARLINK-31327          
1 59160U 24044J   24068.66667824 -.01298913  48499-3 -38853-2 0  9991
2 59160  43.0042 276.6577 0001684 251.7994  73.2764 15.91480053  1794
STARLINK-31256          
1 59161U 24044K   24068.66667824 -.01300535  48615-3 -38882-2 0  9998
2 59161  43.0042 276.6556 0001597 253.1265  73.0351 15.91490271  1795
STARLINK-31272          
1 59162U 24044L   24068.66667824 -.01324809  50401-3 -39143-2 0  9996
2 59162  43.0042 276.6530 0001713 258.2913  68.5735 15.91721569  1741
STARLINK-31278          
1 59163U 24044M   24068.66667824 -.01332020  50955-3 -39147-2 0  9999
2 59163  43.0041 276.6512 0001694 254.8641  72.8287 15.91825365  1748
STARLINK-31309          
1 59164U 24044N   24068.66667824 -.01341207  51651-3 -39212-2 0  9994
2 59164  43.0040 276.6490 0001693 254.6653  73.8434 15.91927142  1799
STARLINK-31325          
1 59165U 24044P   24068.66667824 -.01356539  52801-3 -39407-2 0  9993
2 59165  43.0038 276.6467 0001588 255.5530  73.8662 15.92052988  1520
STARLINK-31342          
1 59166U 24044Q   24068.66667824 -.01364424  53422-3 -39411-2 0  9991
2 59166  43.0038 276.6443 0001598 255.1880  75.0916 15.92163471  1795
STARLINK-31298          
1 59167U 24044R   24068.66667824 -.01373779  54159-3 -39431-2 0  9995
2 59167  43.0038 276.6421 0001757 258.9152  72.2761 15.92285673  1529
STARLINK-31322          
1 59168U 24044S   24068.66667824 -.01385425  55064-3 -39533-2 0  9996
2 59168  43.0037 276.6399 0001649 254.6447  77.4100 15.92399953  1793
